[Satellite]
VERSION=1.1
NAME=FLOCK 3P-2
NICKNAME=FLOCK 3P-2
TLE1=1 41966U 17008U   18020.89446238  .00002874  00000-0  12221-3 0  9999
TLE2=2 41966  97.4693  86.4856 0009535 140.8448 219.3480 15.23813612 51515
